NORAD_CAT_ID,OBJECT_NAME,OBJECT_TYPE,EPOCH,MEAN_MOTION,ECCENTRICITY,INCLINATION,RA_OF_ASC_NODE,ARG_OF_PERICENTER,MEAN_ANOMALY,BSTAR,MEAN_MOTION_DOT,MEAN_MOTION_DDOT,TLE_LINE0,TLE_LINE1,TLE_LINE2,SEMIMAJOR_AXIS,PERIOD,APOGEE,PERIGEE,DECAYED
53257.0,STARLINK-4144,PAYLOAD,2024-02-23 22:38:00,15.08840648,0.0001449,53.2167,297.418,93.1526,266.9632,6.5488e-05,7.54e-06,0.0,0 STARLINK-4144,1 53257U 22086R   24054.94306481  .00000754  00000-0  65488-4 0  9991,2 53257  53.2167 297.4180 0001449  93.1526 266.9632 15.08840648 88636,6917.878,95.438,540.746,538.741,0.0
53257.0,STARLINK-4144,PAYLOAD,2024-02-24 01:48:46,15.08844412,0.0001492,53.2178,296.8231,96.8688,263.2474,2.8112e-05,1.59e-06,0.0,0 STARLINK-4144,1 53257U 22086R   24055.07554322  .00000159  00000-0  28112-4 0  9997,2 53257  53.2178 296.8231 0001492  96.8688 263.2474 15.08844412 88654,6917.867,95.437,540.764,538.7,0.0
53257.0,STARLINK-4144,PAYLOAD,2024-02-25 20:44:11,15.08844315,0.0001514,53.2169,288.7944,95.5743,264.5422,0.00017759,2.54e-05,0.0,0 STARLINK-4144,1 53257U 22086R   24056.86402206  .00002540  00000-0  17759-3 0  9998,2 53257  53.2169 288.7944 0001514  95.5743 264.5422 15.08844315 88747,6917.867,95.437,540.78,538.685,0.0
53257.0,STARLINK-4144,PAYLOAD,2024-02-26 18:59:36,15.08834062,0.0001474,53.2181,284.6398,103.8618,256.2539,4.9602e-05,5.01e-06,0.0,0 STARLINK-4144,1 53257U 22086R   24057.79139058  .00000501  00000-0  49602-4 0  9991,2 53257  53.2181 284.6398 0001474 103.8618 256.2539 15.08834062 88888,6917.899,95.438,540.783,538.744,0.0
53257.0,STARLINK-4144,PAYLOAD,2024-02-26 20:34:59,15.08833862,0.0001454,53.218,284.3421,103.2124,256.903,4.1087e-05,3.66e-06,0.0,0 STARLINK-4144,1 53257U 22086R   24057.85763093  .00000366  00000-0  41087-4 0  9998,2 53257  53.2180 284.3421 0001454 103.2124 256.9030 15.08833862 89077,6917.899,95.438,540.77,538.758,0.0
53257.0,STARLINK-4144,PAYLOAD,2024-02-27 07:42:41,15.08836728,0.0001323,53.2168,282.2532,91.7829,268.3314,3.2442e-05,2.28e-06,0.0,0 STARLINK-4144,1 53257U 22086R   24058.32131001  .00000228  00000-0  32442-4 0  9991,2 53257  53.2168 282.2532 0001323  91.7829 268.3314 15.08836728 89145,6917.89,95.438,540.671,538.84,0.0
53257.0,STARLINK-4144,PAYLOAD,2024-02-27 20:25:46,15.08833888,0.0001395,53.2171,279.8748,95.6111,264.5041,3.0997e-06,-2.39e-06,0.0,0 STARLINK-4144,1 53257U 22086R   24058.85123421 -.00000239  00000-0  30997-5 0  9993,2 53257  53.2171 279.8748 0001395  95.6111 264.5041 15.08833888 89044,6917.899,95.438,540.729,538.799,0.0
53257.0,STARLINK-4144,PAYLOAD,2024-02-27 22:01:09,15.08835597,0.0001405,53.2173,279.5776,94.1948,265.9205,1.5705e-05,-3.8e-07,0.0,0 STARLINK-4144,1 53257U 22086R   24058.91747299 -.00000038  00000-0  15705-4 0  9991,2 53257  53.2173 279.5776 0001405  94.1948 265.9205 15.08835597 89235,6917.894,95.438,540.731,538.787,0.0
53257.0,STARLINK-4144,PAYLOAD,2024-02-28 07:33:28,15.08835396,0.0001548,53.2183,277.7926,98.5383,261.5785,8.0567e-05,9.94e-06,0.0,0 STARLINK-4144,1 53257U 22086R   24059.31491226  .00000994  00000-0  80567-4 0  9990,2 53257  53.2183 277.7926 0001548  98.5383 261.5785 15.08835396 89290,6917.894,95.438,540.83,538.689,0.0
53257.0,STARLINK-4144,PAYLOAD,2024-02-28 21:51:56,15.08817136,0.000152,53.2176,275.1166,92.156,267.9606,0.00041684,6.348e-05,0.0,0 STARLINK-4144,1 53257U 22086R   24059.91107599  .00006348  00000-0  41684-3 0  9998,2 53257  53.2176 275.1166 0001520  92.1560 267.9606 15.08817136 89381,6917.95,95.439,540.867,538.764,0.0
53257.0,STARLINK-4144,PAYLOAD,2024-02-28 23:27:19,15.0883206,0.0001431,53.2178,274.8191,92.0588,268.0568,0.00024906,3.677e-05,0.0,0 STARLINK-4144,1 53257U 22086R   24059.97731151  .00003677  00000-0  24906-3 0  9991,2 53257  53.2178 274.8191 0001431  92.0588 268.0568 15.08832060 89211,6917.905,95.438,540.76,538.78,0.0
53257.0,STARLINK-4144,PAYLOAD,2024-02-29 07:24:15,15.08837736,0.0001534,53.2181,273.3316,84.257,275.8597,6.7479e-05,7.86e-06,0.0,0 STARLINK-4144,1 53257U 22086R   24060.30851361  .00000786  00000-0  67479-4 0  9997,2 53257  53.2181 273.3316 0001534  84.2570 275.8597 15.08837736 89444,6917.887,95.438,540.814,538.691,0.0
53257.0,STARLINK-4144,PAYLOAD,2024-02-29 21:42:43,15.08840867,0.0001306,53.2166,270.6556,87.3039,272.8103,6.9408e-05,8.17e-06,0.0,0 STARLINK-4144,1 53257U 22086R   24060.90467142  .00000817  00000-0  69408-4 0  9992,2 53257  53.2166 270.6556 0001306  87.3039 272.8103 15.08840867 89533,6917.878,95.437,540.646,538.839,0.0
53257.0,STARLINK-4144,PAYLOAD,2024-03-01 13:36:34,15.08842454,0.0001253,53.2164,267.682,85.0676,275.0459,5.8391e-05,6.42e-06,0.0,0 STARLINK-4144,1 53257U 22086R   24061.56707004  .00000642  00000-0  58391-4 0  9994,2 53257  53.2164 267.6820 0001253  85.0676 275.0459 15.08842454 89638,6917.873,95.437,540.605,538.871,0.0
53257.0,STARLINK-4144,PAYLOAD,2024-03-01 19:58:07,15.08847209,0.0001316,53.2163,266.4926,83.7346,276.3796,4.4734e-05,4.24e-06,0.0,0 STARLINK-4144,1 53257U 22086R   24061.83202706  .00000424  00000-0  44734-4 0  9997,2 53257  53.2163 266.4926 0001316  83.7346 276.3796 15.08847209 89495,6917.858,95.437,540.634,538.813,0.0
53257.0,STARLINK-4144,PAYLOAD,2024-03-02 19:48:54,15.08842907,0.0001316,53.2164,262.0331,80.9546,279.1595,3.7504e-05,3.09e-06,0.0,0 STARLINK-4144,1 53257U 22086R   24062.82562857  .00000309  00000-0  37504-4 0  9992,2 53257  53.2164 262.0331 0001316  80.9546 279.1595 15.08842907 89644,6917.872,95.437,540.647,538.826,0.0
53257.0,STARLINK-4144,PAYLOAD,2024-03-03 16:28:55,15.08840475,0.0001369,53.2171,258.1676,90.9016,269.2133,4.5041e-06,-2.16e-06,0.0,0 STARLINK-4144,1 53257U 22086R   24063.68675033 -.00000216  00000-0  45041-5 0  9992,2 53257  53.2171 258.1676 0001369  90.9016 269.2133 15.08840475 89951,6917.879,95.438,540.691,538.797,0.0
53257.0,STARLINK-4144,PAYLOAD,2024-03-04 11:33:32,15.08843669,0.0001412,53.2179,254.5987,96.1713,263.944,9.4364e-05,1.214e-05,0.0,0 STARLINK-4144,1 53257U 22086R   24064.48162368  .00001214  00000-0  94364-4 0  9992,2 53257  53.2179 254.5987 0001412  96.1713 263.9440 15.08843669 89898,6917.869,95.437,540.711,538.757,0.0
53257.0,STARLINK-4144,PAYLOAD,2024-03-04 13:08:55,15.08843626,0.0001399,53.2178,254.3019,96.8977,263.2174,9.0819e-05,1.158e-05,0.0,0 STARLINK-4144,1 53257U 22086R   24064.54786339  .00001158  00000-0  90819-4 0  9997,2 53257  53.2178 254.3019 0001399  96.8977 263.2174 15.08843626 90087,6917.869,95.437,540.702,538.766,0.0
53257.0,STARLINK-4144,PAYLOAD,2024-03-04 19:30:27,15.08848673,0.000136,53.2178,253.1133,97.15,262.9646,0.00012792,1.749e-05,0.0,0 STARLINK-4144,1 53257U 22086R   24064.81281875  .00001749  00000-0  12792-3 0  9991,2 53257  53.2178 253.1133 0001360  97.1500 262.9646 15.08848673 90127,6917.854,95.437,540.66,538.778,0.0
53257.0,STARLINK-4144,PAYLOAD,2024-03-05 17:45:52,15.0883969,0.00013,53.2173,248.9496,97.4014,262.7126,3.1688e-05,2.16e-06,0.0,0 STARLINK-4144,1 53257U 22086R   24065.74018802  .00000216  00000-0  31688-4 0  9996,2 53257  53.2173 248.9496 0001300  97.4014 262.7126 15.08839690 90088,6917.881,95.438,540.646,538.847,0.0
53257.0,STARLINK-4144,PAYLOAD,2024-03-06 04:53:34,15.0883843,0.0001236,53.2171,246.8667,89.1181,270.9953,4.5554e-06,-2.15e-06,0.0,0 STARLINK-4144,1 53257U 22086R   24066.20387002 -.00000215  00000-0  45554-5 0  9997,2 53257  53.2171 246.8667 0001236  89.1181 270.9953 15.08838430 90332,6917.885,95.438,540.605,538.895,0.0
53257.0,STARLINK-4144,PAYLOAD,2024-03-06 19:12:03,15.08832322,0.0001324,53.2186,244.1921,92.0319,268.0824,-3.6484e-05,-8.68e-06,0.0,0 STARLINK-4144,1 53257U 22086R   24066.80003649 -.00000868  00000-0 -36484-4 0  9991,2 53257  53.2186 244.1921 0001324  92.0319 268.0824 15.08832322 90245,6917.904,95.438,540.685,538.853,0.0
53257.0,STARLINK-4144,PAYLOAD,2024-03-07 04:44:21,15.08843495,0.0001398,53.2175,242.4049,81.791,278.3241,-2.7214e-05,-7.21e-06,0.0,0 STARLINK-4144,1 53257U 22086R   24067.19746962 -.00000721  00000-0 -27214-4 0  9995,2 53257  53.2175 242.4049 0001398  81.7910 278.3241 15.08843495 90484,6917.87,95.437,540.702,538.768,0.0
53257.0,STARLINK-4144,PAYLOAD,2024-03-08 17:18:14,15.08838056,0.0001417,53.2174,235.567,89.3647,270.7507,0.00017514,2.5e-05,0.0,0 STARLINK-4144,1 53257U 22086R   24068.72099742  .00002500  00000-0  17514-3 0  9998,2 53257  53.2174 235.5670 0001417  89.3647 270.7507 15.08838056 90533,6917.886,95.438,540.732,538.771,0.0
53257.0,STARLINK-4144,PAYLOAD,2024-03-09 10:47:28,15.08838098,0.0001713,53.2158,232.2931,97.6327,262.486,0.00016813,2.389e-05,0.0,0 STARLINK-4144,1 53257U 22086R   24069.44963792  .00002389  00000-0  16813-3 0  9999,2 53257  53.2158 232.2931 0001713  97.6327 262.4860 15.08838098 90823,6917.886,95.438,540.936,538.566,0.0
53257.0,STARLINK-4144,PAYLOAD,2024-03-09 17:09:01,15.08834041,0.0001372,53.2152,231.1046,98.3017,261.813,0.00010993,1.462e-05,0.0,0 STARLINK-4144,1 53257U 22086R   24069.71460301  .00001462  00000-0  10993-3 0  9991,2 53257  53.2152 231.1046 0001372  98.3017 261.8130 15.08834041 90688,6917.899,95.438,540.713,538.814,0.0
53257.0,STARLINK-4144,PAYLOAD,2024-03-10 16:59:48,15.08843706,2.57e-05,53.2156,226.6454,30.9421,329.1586,-1.2632e-05,-4.88e-06,0.0,0 STARLINK-4144,1 53257U 22086R   24070.70820034 -.00000488  00000-0 -12632-4 0  9997,2 53257  53.2156 226.6454 0000257  30.9421 329.1586 15.08843706 91015,6917.869,95.437,539.912,539.556,0.0
53257.0,STARLINK-4144,PAYLOAD,2024-03-11 20:01:22,15.08822811,0.0001363,53.2163,221.5899,93.1383,266.9765,0.00025016,3.694e-05,0.0,0 STARLINK-4144,1 53257U 22086R   24071.83428847  .00003694  00000-0  25016-3 0  9997,2 53257  53.2163 221.5899 0001363  93.1383 266.9765 15.08822811 91007,6917.933,95.439,540.741,538.855,0.0
53257.0,STARLINK-4144,PAYLOAD,2024-03-12 16:41:23,15.08820262,8.6e-05,53.2175,217.7253,326.2936,33.8001,0.00025247,3.731e-05,0.0,0 STARLINK-4144,1 53257U 22086R   24072.69541163  .00003731  00000-0  25247-3 0  9997,2 53257  53.2175 217.7253 0000860 326.2936  33.8001 15.08820262 91312,6917.941,95.439,540.401,539.211,0.0
